SL-16 R/B               
1 22566U 93016B   26020.93135798  .00000243  00000+0  14898-3 0  9996
2 22566  71.0087 315.4900 0009030  24.7752 335.3803 14.15294696695414
COSMOS 2242             
1 22626U 93024A   26020.89299244  .00005241  00000+0  46001-3 0  9998
2 22626  82.5219 312.4211 0017985 103.9692 256.3532 14.96308358773247
SL-16 R/B               
1 22803U 93059B   26020.69328916  .00000091  00000+0  68869-4 0  9995
2 22803  70.9908 112.3451 0019540 281.7820  78.1112 14.17223643672732
ARIANE 40 R/B           
1 22830U 93061H   26020.79443403  .00000459  00000+0  18409-3 0  9990
2 22830  98.5015  90.6032 0011674  69.0480 291.1953 14.32830273687241
COSMOS 2278             
1 23087U 94023A   26020.92963406  .00000063  00000+0  57457-4 0  9997
2 23087  71.0541 275.0204 0006398 105.3620 254.8210 14.14366231638058
SL-16 R/B               
1 23088U 94023B   26020.85639011  .00000021  00000+0  35498-4 0  9997
2 23088  70.9998 171.3399 0003823 331.0774  29.0137 14.15007021639325
SL-16 R/B               
1 23343U 94074B   26020.97453365  .00000939  00000+0  13270-3 0  9997
2 23343  97.7165  53.7128 0007168  28.2527  36.7441 14.79342692680192
SL-16 R/B               
1 23405U 94077B   26020.64468864  .00000115  00000+0  83184-4 0  9991
2 23405  70.9833  93.5693 0004839 254.3130 105.7460 14.15558074609438
ARIANE 40+ R/B          
1 23561U 95021B   26020.80413664  .00000653  00000+0  22238-3 0  9999
2 23561  98.4592  92.9121 0005682 287.5281 182.3338 14.39730891612354
SL-16 R/B               
1 23705U 95058B   26020.93196172 -.00000158  00000+0 -56341-4 0  9990
2 23705  71.0217 280.5223 0013358 202.8662 157.1867 14.15489526561096
SL-16 R/B               
1 24298U 96051B   26020.93650570  .00000082  00000+0  70826-4 0  9997
2 24298  70.7585 276.3176 0018709 212.9134 147.0822 14.12402050514900
ORBVIEW 2 (SEASTAR)     
1 24883U 97037A   26020.95012486  .00000594  00000+0  22297-3 0  9998
2 24883  98.8488 184.0191 0002128 175.6376 184.4828 14.35451508501629
